[{"OBJECT_NAME":"HAIYANG-2D","OBJECT_ID":"2021-043A","EPOCH":"2026-03-09T23:01:37.583328","MEAN_MOTION":13.8337425,"ECCENTRICITY":0.00105603,"INCLINATION":65.9986,"RA_OF_ASC_NODE":191.7425,"ARG_OF_PERICENTER":278.687,"MEAN_ANOMALY":81.3002,"EPHEMERIS_TYPE":0,"CLASSIFICATION_TYPE":"U","NORAD_CAT_ID":48621,"ELEMENT_SET_NO":999,"REV_AT_EPOCH":24282,"BSTAR":4.3398589e-5,"MEAN_MOTION_DOT":-3.3e-7,"MEAN_MOTION_DDOT":0},{"OBJECT_NAME":"FENGYUN 1C DEB","OBJECT_ID":"1999-025BDT","EPOCH":"2026-02-28T04:36:43.324704","MEAN_MOTION":14.20808746,"ECCENTRICITY":0.01726892,"INCLINATION":98.5859,"RA_OF_ASC_NODE":52.1896,"ARG_OF_PERICENTER":147.7218,"MEAN_ANOMALY":213.4668,"EPHEMERIS_TYPE":0,"CLASSIFICATION_TYPE":"U","NORAD_CAT_ID":31025,"ELEMENT_SET_NO":999,"REV_AT_EPOCH":65465,"BSTAR":0.00036364954,"MEAN_MOTION_DOT":8.7e-6,"MEAN_MOTION_DDOT":0}]
